{
  "type": "FeatureCollection",
  "features": [
    {
      "type": "Feature",
      "properties": {
        "norad_id": 34121,
        "name": "COSMOS 2251 DEB",
        "group": "cosmos-2251-debris",
        "lat": -25.396589472429667,
        "lon": -78.63267162305097,
        "alt_km": 929.3614641332342,
        "timestamp": "2025-12-14T20:40:32.166687+00:00",
        "meta_object_name": "COSMOS 2251 DEB",
        "meta_object_id": "1993-036KS",
        "meta_epoch": "2025-12-14T07:52:42.796704",
        "meta_mean_motion": 13.9193715,
        "meta_eccentricity": 0.0240396,
        "meta_inclination": 73.9925,
        "meta_ra_of_asc_node": 94.4476,
        "meta_arg_of_pericenter": 299.5537,
        "meta_mean_anomaly": 118.7188,
        "meta_ephemeris_type": 0,
        "meta_classification_type": "U",
        "meta_norad_cat_id": 34121,
        "meta_element_set_no": 999,
        "meta_rev_at_epoch": 85147,
        "meta_bstar": 0.0014154398,
        "meta_mean_motion_dot": 2.26e-05,
        "meta_mean_motion_ddot": 0,
        "tle_line1": "1 34121U 93036KS  25348.32827311  .00002260  00000+0  14154-2 0  9997",
        "tle_line2": "2 34121  73.9925  94.4476 0240396 299.5537 118.7188 13.91937150851474"
      },
      "geometry": {
        "type": "Point",
        "coordinates": [
          -78.63267162305097,
          -25.396589472429667
        ]
      }
    },
    {
      "type": "Feature",
      "properties": {
        "norad_id": 34122,
        "name": "COSMOS 2251 DEB",
        "group": "cosmos-2251-debris",
        "lat": -59.373456194066186,
        "lon": 85.63584448350848,
        "alt_km": 666.9999150538306,
        "timestamp": "2025-12-14T20:40:32.166697+00:00",
        "meta_object_name": "COSMOS 2251 DEB",
        "meta_object_id": "1993-036KT",
        "meta_epoch": "2025-12-14T07:58:33.782016",
        "meta_mean_motion": 14.65079208,
        "meta_eccentricity": 0.00844019,
        "meta_inclination": 74.0356,
        "meta_ra_of_asc_node": 115.5699,
        "meta_arg_of_pericenter": 11.996,
        "meta_mean_anomaly": 15.7413,
        "meta_ephemeris_type": 0,
        "meta_classification_type": "U",
        "meta_norad_cat_id": 34122,
        "meta_element_set_no": 999,
        "meta_rev_at_epoch": 88708,
        "meta_bstar": 0.0012573839,
        "meta_mean_motion_dot": 7.088e-05,
        "meta_mean_motion_ddot": 0,
        "tle_line1": "1 34122U 93036KT  25348.33233544  .00007088  00000+0  12574-2 0  9995",
        "tle_line2": "2 34122  74.0356 115.5699 0084401  11.9960  15.7413 14.65079208887082"
      },
      "geometry": {
        "type": "Point",
        "coordinates": [
          85.63584448350848,
          -59.373456194066186
        ]
      }
    },
    {
      "type": "Feature",
      "properties": {
        "norad_id": 34127,
        "name": "COSMOS 2251 DEB",
        "group": "cosmos-2251-debris",
        "lat": -44.03384799346869,
        "lon": 24.119502344982852,
        "alt_km": 769.4741457755727,
        "timestamp": "2025-12-14T20:40:32.166707+00:00",
        "meta_object_name": "COSMOS 2251 DEB",
        "meta_object_id": "1993-036KY",
        "meta_epoch": "2025-12-14T04:24:18.713088",
        "meta_mean_motion": 14.31564344,
        "meta_eccentricity": 0.01149528,
        "meta_inclination": 74.1796,
        "meta_ra_of_asc_node": 41.2545,
        "meta_arg_of_pericenter": 241.0681,
        "meta_mean_anomaly": 179.0792,
        "meta_ephemeris_type": 0,
        "meta_classification_type": "U",
        "meta_norad_cat_id": 34127,
        "meta_element_set_no": 999,
        "meta_rev_at_epoch": 86792,
        "meta_bstar": 0.0019186824,
        "meta_mean_motion_dot": 5.467e-05,
        "meta_mean_motion_ddot": 0,
        "tle_line1": "1 34127U 93036KY  25348.18354992  .00005467  00000+0  19187-2 0  9990",
        "tle_line2": "2 34127  74.1796  41.2545 0114952 241.0681 179.0792 14.31564344867920"
      },
      "geometry": {
        "type": "Point",
        "coordinates": [
          24.119502344982852,
          -44.03384799346869
        ]
      }
    },
    {
      "type": "Feature",
      "properties": {
        "norad_id": 34128,
        "name": "COSMOS 2251 DEB",
        "group": "cosmos-2251-debris",
        "lat": -28.94533916240167,
        "lon": -76.73871858980384,
        "alt_km": 563.5824874784048,
        "timestamp": "2025-12-14T20:40:32.166717+00:00",
        "meta_object_name": "COSMOS 2251 DEB",
        "meta_object_id": "1993-036KZ",
        "meta_epoch": "2025-12-14T06:57:40.174848",
        "meta_mean_motion": 15.01247278,
        "meta_eccentricity": 0.00258907,
        "meta_inclination": 73.999,
        "meta_ra_of_asc_node": 293.5589,
        "meta_arg_of_pericenter": 45.3791,
        "meta_mean_anomaly": 77.7498,
        "meta_ephemeris_type": 0,
        "meta_classification_type": "U",
        "meta_norad_cat_id": 34128,
        "meta_element_set_no": 999,
        "meta_rev_at_epoch": 89190,
        "meta_bstar": 0.0020257446,
        "meta_mean_motion_dot": 0.00026278,
        "meta_mean_motion_ddot": 0,
        "tle_line1": "1 34128U 93036KZ  25348.29004832  .00026278  00000+0  20257-2 0  9991",
        "tle_line2": "2 34128  73.9990 293.5589 0025890  45.3791  77.7498 15.01247278891907"
      },
      "geometry": {
        "type": "Point",
        "coordinates": [
          -76.73871858980384,
          -28.94533916240167
        ]
      }
    },
    {
      "type": "Feature",
      "properties": {
        "norad_id": 34129,
        "name": "COSMOS 2251 DEB",
        "group": "cosmos-2251-debris",
        "lat": 50.200005880884135,
        "lon": -4.528999120685865,
        "alt_km": 614.5940227338442,
        "timestamp": "2025-12-14T20:40:32.166727+00:00",
        "meta_object_name": "COSMOS 2251 DEB",
        "meta_object_id": "1993-036LA",
        "meta_epoch": "2025-12-14T07:25:19.062624",
        "meta_mean_motion": 14.75775974,
        "meta_eccentricity": 0.00329781,
        "meta_inclination": 74.0353,
        "meta_ra_of_asc_node": 336.4552,
        "meta_arg_of_pericenter": 57.4365,
        "meta_mean_anomaly": 302.9986,
        "meta_ephemeris_type": 0,
        "meta_classification_type": "U",
        "meta_norad_cat_id": 34129,
        "meta_element_set_no": 999,
        "meta_rev_at_epoch": 61321,
        "meta_bstar": 0.0015598646,
        "meta_mean_motion_dot": 0.00010764,
        "meta_mean_motion_ddot": 0,
        "tle_line1": "1 34129U 93036LA  25348.30924841  .00010764  00000+0  15599-2 0  9991",
        "tle_line2": "2 34129  74.0353 336.4552 0032978  57.4365 302.9986 14.75775974613216"
      },
      "geometry": {
        "type": "Point",
        "coordinates": [
          -4.528999120685865,
          50.200005880884135
        ]
      }
    },
    {
      "type": "Feature",
      "properties": {
        "norad_id": 34136,
        "name": "COSMOS 2251 DEB",
        "group": "cosmos-2251-debris",
        "lat": -57.81808751756083,
        "lon": -114.46515731647294,
        "alt_km": 625.6168308553606,
        "timestamp": "2025-12-14T20:40:32.166737+00:00",
        "meta_object_name": "COSMOS 2251 DEB",
        "meta_object_id": "1993-036LH",
        "meta_epoch": "2025-12-14T05:15:05.897664",
        "meta_mean_motion": 14.8009624,
        "meta_eccentricity": 0.00856454,
        "meta_inclination": 74.0212,
        "meta_ra_of_asc_node": 39.7153,
        "meta_arg_of_pericenter": 162.304,
        "meta_mean_anomaly": 255.4449,
        "meta_ephemeris_type": 0,
        "meta_classification_type": "U",
        "meta_norad_cat_id": 34136,
        "meta_element_set_no": 999,
        "meta_rev_at_epoch": 90032,
        "meta_bstar": 0.00048437118,
        "meta_mean_motion_dot": 3.875e-05,
        "meta_mean_motion_ddot": 0,
        "tle_line1": "1 34136U 93036LH  25348.21881826  .00003875  00000+0  48437-3 0  9997",
        "tle_line2": "2 34136  74.0212  39.7153 0085645 162.3040 255.4449 14.80096240900328"
      },
      "geometry": {
        "type": "Point",
        "coordinates": [
          -114.46515731647294,
          -57.81808751756083
        ]
      }
    },
    {
      "type": "Feature",
      "properties": {
        "norad_id": 34139,
        "name": "COSMOS 2251 DEB",
        "group": "cosmos-2251-debris",
        "lat": 17.770983209227545,
        "lon": 64.7533628849384,
        "alt_km": 724.2336558917368,
        "timestamp": "2025-12-14T20:40:32.166747+00:00",
        "meta_object_name": "COSMOS 2251 DEB",
        "meta_object_id": "1993-036LL",
        "meta_epoch": "2025-12-14T04:10:41.534112",
        "meta_mean_motion": 14.59094602,
        "meta_eccentricity": 0.0042562,
        "meta_inclination": 74.0304,
        "meta_ra_of_asc_node": 251.3291,
        "meta_arg_of_pericenter": 321.8975,
        "meta_mean_anomaly": 190.4407,
        "meta_ephemeris_type": 0,
        "meta_classification_type": "U",
        "meta_norad_cat_id": 34139,
        "meta_element_set_no": 999,
        "meta_rev_at_epoch": 88170,
        "meta_bstar": 0.0015452533,
        "meta_mean_motion_dot": 7.34e-05,
        "meta_mean_motion_ddot": 0,
        "tle_line1": "1 34139U 93036LL  25348.17409183  .00007340  00000+0  15453-2 0  9999",
        "tle_line2": "2 34139  74.0304 251.3291 0042562 321.8975 190.4407 14.59094602881706"
      },
      "geometry": {
        "type": "Point",
        "coordinates": [
          64.7533628849384,
          17.770983209227545
        ]
      }
    }
  ]
}